STARLINK-1196
1 15103C 20006BM  21326.15851053  .00002866  00000-0  19623-3 0  3263
2 15103  53.0537  88.0604 0001309  73.1823 152.1057 15.05591342    18
